[{"OBJECT_NAME":"STARLINK-31955","OBJECT_ID":"2024-106T","EPOCH":"2026-03-09T02:13:08.024736","MEAN_MOTION":15.27582623,"ECCENTRICITY":0.00015786,"INCLINATION":43.0036,"RA_OF_ASC_NODE":335.711,"ARG_OF_PERICENTER":261.2872,"MEAN_ANOMALY":98.7801,"EPHEMERIS_TYPE":0,"CLASSIFICATION_TYPE":"U","NORAD_CAT_ID":59939,"ELEMENT_SET_NO":999,"REV_AT_EPOCH":10047,"BSTAR":-3.5367692e-5,"MEAN_MOTION_DOT":-1.235e-5,"MEAN_MOTION_DDOT":0},{"OBJECT_NAME":"FLOCK 4G-18","OBJECT_ID":"2025-009BZ","EPOCH":"2026-03-09T04:35:14.656704","MEAN_MOTION":15.27241676,"ECCENTRICITY":0.00041001,"INCLINATION":97.4054,"RA_OF_ASC_NODE":150.5008,"ARG_OF_PERICENTER":335.7331,"MEAN_ANOMALY":24.3715,"EPHEMERIS_TYPE":0,"CLASSIFICATION_TYPE":"U","NORAD_CAT_ID":62680,"ELEMENT_SET_NO":999,"REV_AT_EPOCH":12126,"BSTAR":0.0004431856,"MEAN_MOTION_DOT":0.00011766,"MEAN_MOTION_DDOT":0}]
